HORS 1                  
1 57188U 23091Y   26185.60844487  .00016803  00000+0  63454-3 0  9999
2 57188  97.5053 249.2844 0009291  40.8546 319.3387 15.27043577166975
VIZARD-METEO (RS38S)    
1 57189U 23091Z   26185.47325837  .00026696  00000+0  74730-3 0  9998
2 57189  97.5079 255.3105 0006701  21.3484 338.8038 15.36596660167347
SITRO-AIS 6 (CHIRKIN)   
1 57192U 23091AC  26185.62110626  .00019966  00000+0  76979-3 0  9996
2 57192  97.5052 248.7159 0012241  51.9047 308.3293 15.26286786166941
SITRO-AIS 8 (ANOKHIN)   
1 57193U 23091AD  26185.13080398  .00019060  00000+0  60599-3 0  9991
2 57193  97.5045 250.8532 0010646  46.1829 314.0291 15.32607386167048
SITRO-AIS 7 (FARTUSHNIY)
1 57194U 23091AE  26185.62785939  .00019203  00000+0  74771-3 0  9995
2 57194  97.5050 248.5384 0012185  53.0699 307.1654 15.25966494166939
AVION KALUGA 650        
1 57195U 23091AF  26185.60246292  .00009823  00000+0  45102-3 0  9991
2 57195  97.5075 245.1095 0011395  56.4013 303.8309 15.20550206166674
HORS 2                  
1 57196U 23091AG  26185.60247370  .00027145  00000+0  86845-3 0  9996
2 57196  97.5075 252.8736 0007985  33.1096 327.0644 15.32358064167194
A-SEANSAT-PG1           
1 57197U 23091AH  26185.45626372  .00027828  00000+0  75455-3 0  9996
2 57197  97.5068 255.4122 0006780  29.6576 330.5051 15.37579588167361
SITRO-AIS 10 (BURDAEV)  
1 57199U 23091AK  26185.15516717  .00026543  00000+0  68169-3 0  9993
2 57199  97.5070 256.1095 0005964  24.9321 335.2211 15.39268228167371
SITRO-AIS 9 (SHCHUKIN)  
1 57201U 23091AM  26185.18704851  .00026320  00000+0  68713-3 0  9996
2 57201  97.5068 255.8587 0006215  24.8544 335.2999 15.38765397167360
UTMN 2 (RS27S)          
1 57203U 23091AP  26185.62794171  .00025376  00000+0  80857-3 0  9994
2 57203  97.5073 253.0947 0007867  28.5017 331.6653 15.32503952167210
SITRO-AIS 12 (SMIRENNIY)
1 57204U 23091AQ  26185.62954606  .00038147  00000+0  98281-3 0  9996
2 57204  97.5079 256.7899 0005690  17.2148 342.9289 15.39097328167453
SITRO-AIS 11 (SHEFFER)  
1 57208U 23091AU  26185.63809029  .00041739  00000+0  10595-2 0  9991
2 57208  97.5076 257.0564 0005573  17.1589 342.9844 15.39533113167471
H2SAT (HEINRICH HERTZ)  
1 57213U 23093A   26183.36884350  .00000012  00000+0  00000+0 0  9993
2 57213   0.0305  96.5420 0001078  16.6933 300.6646  1.00270532 11061
KUZGTU 1 (RS47S)        
1 57217U 23091AV  26185.62653015  .00024264  00000+0  82758-3 0  9997
2 57217  97.5049 250.2879 0011186  42.7073 317.5035 15.30286863167045
QIANKUN-1               
1 57422U 23103B   26183.10934917  .00016028  17592-5  18856-4 0  9991
2 57422  96.1427 226.8993 0035896 143.2789 217.0966 16.07677687169692
FENGYUN 3F              
1 57490U 23111A   26185.59052329  .00000075  00000+0  55845-4 0  9992
2 57490  98.6829 255.2745 0001467  81.6137 278.5206 14.19942185151330
HJ-2F                   
1 57519U 23116A   26185.60415182  .00011942  00000+0  51639-3 0  9992
2 57519  97.3846 190.5215 0007752 355.5090   4.6076 15.22579969161407
XRISM                   
1 57800U 23137A   26185.54648538  .00006937  00000+0  38160-3 0  9996
2 57800  31.0014 247.1450 0007776 139.1383 220.9840 15.12620129155497
METEOR-M2 4             
1 59051U 24039A   26185.62824690  .00000033  00000+0  34366-4 0  9998
2 59051  98.7019 144.7077 0008092 115.0884 245.1134 14.22431382121747
GRBBETA                 
1 60237U 24128C   26185.34249703  .00004844  00000+0  33299-3 0  9997
2 60237  61.9890 156.0715 0038478 138.2511 222.1530 15.06749901108858
TRANSPORTER-11 OBJECT A 
1 60468U 24149A   26184.79793718  .00010187  00000+0  32000-3 0  9990
2 60468  97.3727 264.6782 0004241 144.8351 215.3172 15.33184121104604
WARATAH SEED-1          
1 60469U 24149B   26185.50346234  .00026532  00000+0  74769-3 0  9997
2 60469  97.3681 266.0988 0002722 141.4990 218.6449 15.36405944104775
PHISAT 2                
1 60470U 24149C   26185.49618058  .00014364  00000+0  47710-3 0  9999
2 60470  97.3751 264.6185 0002570 143.5963 216.5453 15.31311108104643
LEMUR-2-TOMATOKECHUP    
1 60471U 24149D   26185.49912609  .00021268  00000+0  60014-3 0  9992
2 60471  97.3793 267.5937 0002803 142.1058 218.0383 15.36409366104824
CONNECTA IOT-1          
1 60472U 24149E   26184.71191559  .00004815  00000+0  20371-3 0  9991
2 60472  97.3752 260.7250 0001788 165.8477 194.2811 15.23668982104313
LOPEN                   
1 60473U 24149F   26184.96039963  .00018556  00000+0  46386-3 0  9990
2 60473  97.3774 268.4642 0002133 153.0090 207.1268 15.40180798104844
ROCK                    
1 60474U 24149G   26185.20693218  .00020113  00000+0  50246-3 0  9990
2 60474  97.3769 268.7278 0002468 152.9930 207.1445 15.40183022104883
CONNECTA IOT-3          
1 60475U 24149H   26185.45555466  .00005317  00000+0  22446-3 0  9990
2 60475  97.3727 261.2041 0002937 172.1966 187.9317 15.23690148104435
